LEMUR-2-DELOITTE-1      
1 63259U 25052BB  26068.93956839  .00005004  00000+0  44206-3 0  9990
2 63259  97.7035 323.2090 0003011  78.3841 281.7719 14.96797120 53844
STARLINK-34374          
1 64308U 25123T   26068.80476954  .00007369  00000+0  62430-3 0  9991
2 64308  70.0019 194.2446 0003692 271.1836  88.8900 14.98357012 41635
