[{"OBJECT_NAME":"LEMUR-2-DELOITTE-1","OBJECT_ID":"2025-052BB","EPOCH":"2026-03-09T22:32:58.708896","MEAN_MOTION":14.9679712,"ECCENTRICITY":0.00030112,"INCLINATION":97.7035,"RA_OF_ASC_NODE":323.209,"ARG_OF_PERICENTER":78.3841,"MEAN_ANOMALY":281.7719,"EPHEMERIS_TYPE":0,"CLASSIFICATION_TYPE":"U","NORAD_CAT_ID":63259,"ELEMENT_SET_NO":999,"REV_AT_EPOCH":5384,"BSTAR":0.00044206323,"MEAN_MOTION_DOT":5.004e-5,"MEAN_MOTION_DDOT":0},{"OBJECT_NAME":"STARLINK-34374","OBJECT_ID":"2025-123T","EPOCH":"2026-03-09T19:18:52.088256","MEAN_MOTION":14.98357012,"ECCENTRICITY":0.00036929,"INCLINATION":70.0019,"RA_OF_ASC_NODE":194.2446,"ARG_OF_PERICENTER":271.1836,"MEAN_ANOMALY":88.89,"EPHEMERIS_TYPE":0,"CLASSIFICATION_TYPE":"U","NORAD_CAT_ID":64308,"ELEMENT_SET_NO":999,"REV_AT_EPOCH":4163,"BSTAR":0.0006243017,"MEAN_MOTION_DOT":7.369e-5,"MEAN_MOTION_DDOT":0}]
